{
  "type": "FeatureCollection",
  "features": [
    {
      "type": "Feature",
      "properties": {
        "norad_id": 34570,
        "name": "COSMOS 2251 DEB",
        "group": "cosmos-2251-debris",
        "lat": 71.68313210418314,
        "lon": -75.5631647112257,
        "alt_km": 762.5825188632743,
        "timestamp": "2025-12-09T09:46:48.040291+00:00",
        "meta_object_name": "COSMOS 2251 DEB",
        "meta_object_id": "1993-036VG",
        "meta_epoch": "2025-12-09T03:07:41.617056",
        "meta_mean_motion": 13.99810264,
        "meta_eccentricity": 0.0190221,
        "meta_inclination": 73.9576,
        "meta_ra_of_asc_node": 224.5592,
        "meta_arg_of_pericenter": 107.8615,
        "meta_mean_anomaly": 18.0194,
        "meta_ephemeris_type": 0,
        "meta_classification_type": "U",
        "meta_norad_cat_id": 34570,
        "meta_element_set_no": 999,
        "meta_rev_at_epoch": 85550,
        "meta_bstar": 0.00061874,
        "meta_mean_motion_dot": 1.037e-05,
        "meta_mean_motion_ddot": 0,
        "tle_line1": "1 34570U 93036VG  25343.13034279  .00001037  00000+0  61874-3 0  9995",
        "tle_line2": "2 34570  73.9576 224.5592 0190221 107.8615  18.0194 13.99810264855509"
      },
      "geometry": {
        "type": "Point",
        "coordinates": [
          -75.5631647112257,
          71.68313210418314
        ]
      }
    },
    {
      "type": "Feature",
      "properties": {
        "norad_id": 34571,
        "name": "COSMOS 2251 DEB",
        "group": "cosmos-2251-debris",
        "lat": 61.00019354866373,
        "lon": -140.23937006351363,
        "alt_km": 767.5753239704836,
        "timestamp": "2025-12-09T09:46:48.040301+00:00",
        "meta_object_name": "COSMOS 2251 DEB",
        "meta_object_id": "1993-036VH",
        "meta_epoch": "2025-12-08T23:31:52.760064",
        "meta_mean_motion": 14.48715546,
        "meta_eccentricity": 0.0066477,
        "meta_inclination": 74.0393,
        "meta_ra_of_asc_node": 189.4757,
        "meta_arg_of_pericenter": 225.28,
        "meta_mean_anomaly": 134.2937,
        "meta_ephemeris_type": 0,
        "meta_classification_type": "U",
        "meta_norad_cat_id": 34571,
        "meta_element_set_no": 999,
        "meta_rev_at_epoch": 87239,
        "meta_bstar": 0.0023186,
        "meta_mean_motion_dot": 8.972e-05,
        "meta_mean_motion_ddot": 0,
        "tle_line1": "1 34571U 93036VH  25342.98047176  .00008972  00000+0  23186-2 0  9996",
        "tle_line2": "2 34571  74.0393 189.4757 0066477 225.2800 134.2937 14.48715546872391"
      },
      "geometry": {
        "type": "Point",
        "coordinates": [
          -140.23937006351363,
          61.00019354866373
        ]
      }
    },
    {
      "type": "Feature",
      "properties": {
        "norad_id": 34572,
        "name": "COSMOS 2251 DEB",
        "group": "cosmos-2251-debris",
        "lat": -73.35733371277661,
        "lon": 48.18970275542059,
        "alt_km": 723.6882308383274,
        "timestamp": "2025-12-09T09:46:48.040312+00:00",
        "meta_object_name": "COSMOS 2251 DEB",
        "meta_object_id": "1993-036VJ",
        "meta_epoch": "2025-12-08T19:57:57.467232",
        "meta_mean_motion": 14.49880112,
        "meta_eccentricity": 0.00633866,
        "meta_inclination": 74.0103,
        "meta_ra_of_asc_node": 122.8558,
        "meta_arg_of_pericenter": 197.3594,
        "meta_mean_anomaly": 313.4756,
        "meta_ephemeris_type": 0,
        "meta_classification_type": "U",
        "meta_norad_cat_id": 34572,
        "meta_element_set_no": 999,
        "meta_rev_at_epoch": 87321,
        "meta_bstar": 0.0045546046,
        "meta_mean_motion_dot": 0.00018073,
        "meta_mean_motion_ddot": 0,
        "tle_line1": "1 34572U 93036VJ  25342.83191513  .00018073  00000+0  45546-2 0  9993",
        "tle_line2": "2 34572  74.0103 122.8558 0063386 197.3594 313.4756 14.49880112873211"
      },
      "geometry": {
        "type": "Point",
        "coordinates": [
          48.18970275542059,
          -73.35733371277661
        ]
      }
    },
    {
      "type": "Feature",
      "properties": {
        "norad_id": 34574,
        "name": "COSMOS 2251 DEB",
        "group": "cosmos-2251-debris",
        "lat": -73.60394027158489,
        "lon": -26.515303327952978,
        "alt_km": 709.7987519697235,
        "timestamp": "2025-12-09T09:46:48.040323+00:00",
        "meta_object_name": "COSMOS 2251 DEB",
        "meta_object_id": "1993-036VL",
        "meta_epoch": "2025-12-08T13:28:39.083808",
        "meta_mean_motion": 14.70533696,
        "meta_eccentricity": 0.0066851,
        "meta_inclination": 74.0692,
        "meta_ra_of_asc_node": 51.2259,
        "meta_arg_of_pericenter": 73.5607,
        "meta_mean_anomaly": 44.1457,
        "meta_ephemeris_type": 0,
        "meta_classification_type": "U",
        "meta_norad_cat_id": 34574,
        "meta_element_set_no": 999,
        "meta_rev_at_epoch": 88717,
        "meta_bstar": 0.001243,
        "meta_mean_motion_dot": 7.788e-05,
        "meta_mean_motion_ddot": 0,
        "tle_line1": "1 34574U 93036VL  25342.56156347  .00007788  00000+0  12430-2 0  9998",
        "tle_line2": "2 34574  74.0692  51.2259 0066851  73.5607  44.1457 14.70533696887171"
      },
      "geometry": {
        "type": "Point",
        "coordinates": [
          -26.515303327952978,
          -73.60394027158489
        ]
      }
    },
    {
      "type": "Feature",
      "properties": {
        "norad_id": 34576,
        "name": "COSMOS 2251 DEB",
        "group": "cosmos-2251-debris",
        "lat": 61.12104105191388,
        "lon": 175.78017848960818,
        "alt_km": 706.5905478977065,
        "timestamp": "2025-12-09T09:46:48.040333+00:00",
        "meta_object_name": "COSMOS 2251 DEB",
        "meta_object_id": "1993-036VN",
        "meta_epoch": "2025-12-08T12:17:31.843968",
        "meta_mean_motion": 14.55375764,
        "meta_eccentricity": 0.00080493,
        "meta_inclination": 74.0338,
        "meta_ra_of_asc_node": 146.2054,
        "meta_arg_of_pericenter": 280.7593,
        "meta_mean_anomaly": 135.8263,
        "meta_ephemeris_type": 0,
        "meta_classification_type": "U",
        "meta_norad_cat_id": 34576,
        "meta_element_set_no": 999,
        "meta_rev_at_epoch": 88405,
        "meta_bstar": 0.0012955401,
        "meta_mean_motion_dot": 5.603e-05,
        "meta_mean_motion_ddot": 0,
        "tle_line1": "1 34576U 93036VN  25342.51217412  .00005603  00000+0  12955-2 0  9992",
        "tle_line2": "2 34576  74.0338 146.2054 0008049 280.7593 135.8263 14.55375764884059"
      },
      "geometry": {
        "type": "Point",
        "coordinates": [
          175.78017848960818,
          61.12104105191388
        ]
      }
    },
    {
      "type": "Feature",
      "properties": {
        "norad_id": 34579,
        "name": "COSMOS 2251 DEB",
        "group": "cosmos-2251-debris",
        "lat": 42.88108782103898,
        "lon": -114.50505390835966,
        "alt_km": 742.5045377120396,
        "timestamp": "2025-12-09T09:46:48.040344+00:00",
        "meta_object_name": "COSMOS 2251 DEB",
        "meta_object_id": "1993-036VR",
        "meta_epoch": "2025-12-09T03:40:26.380704",
        "meta_mean_motion": 14.45291497,
        "meta_eccentricity": 0.0027583,
        "meta_inclination": 74.0531,
        "meta_ra_of_asc_node": 230.5702,
        "meta_arg_of_pericenter": 299.7479,
        "meta_mean_anomaly": 221.8671,
        "meta_ephemeris_type": 0,
        "meta_classification_type": "U",
        "meta_norad_cat_id": 34579,
        "meta_element_set_no": 999,
        "meta_rev_at_epoch": 88122,
        "meta_bstar": 0.00055887,
        "meta_mean_motion_dot": 1.944e-05,
        "meta_mean_motion_ddot": 0,
        "tle_line1": "1 34579U 93036VR  25343.15308311  .00001944  00000+0  55887-3 0  9991",
        "tle_line2": "2 34579  74.0531 230.5702 0027583 299.7479 221.8671 14.45291497881225"
      },
      "geometry": {
        "type": "Point",
        "coordinates": [
          -114.50505390835966,
          42.88108782103898
        ]
      }
    },
    {
      "type": "Feature",
      "properties": {
        "norad_id": 34582,
        "name": "COSMOS 2251 DEB",
        "group": "cosmos-2251-debris",
        "lat": 6.2611621510625355,
        "lon": -79.62464455152885,
        "alt_km": 718.0822814635985,
        "timestamp": "2025-12-09T09:46:48.040354+00:00",
        "meta_object_name": "COSMOS 2251 DEB",
        "meta_object_id": "1993-036VU",
        "meta_epoch": "2025-12-08T22:06:19.649664",
        "meta_mean_motion": 14.43291549,
        "meta_eccentricity": 0.0047645,
        "meta_inclination": 74.0202,
        "meta_ra_of_asc_node": 279.4779,
        "meta_arg_of_pericenter": 30.4908,
        "meta_mean_anomaly": 329.9002,
        "meta_ephemeris_type": 0,
        "meta_classification_type": "U",
        "meta_norad_cat_id": 34582,
        "meta_element_set_no": 999,
        "meta_rev_at_epoch": 87892,
        "meta_bstar": 0.00099066,
        "meta_mean_motion_dot": 3.358e-05,
        "meta_mean_motion_ddot": 0,
        "tle_line1": "1 34582U 93036VU  25342.92106076  .00003358  00000+0  99066-3 0  9991",
        "tle_line2": "2 34582  74.0202 279.4779 0047645  30.4908 329.9002 14.43291549878925"
      },
      "geometry": {
        "type": "Point",
        "coordinates": [
          -79.62464455152885,
          6.2611621510625355
        ]
      }
    }
  ]
}